[{"OBJECT_NAME":"STARLINK-32906","OBJECT_ID":"2025-037D","EPOCH":"2026-03-09T22:21:33.765984","MEAN_MOTION":14.98332215,"ECCENTRICITY":0.00032932,"INCLINATION":70.0028,"RA_OF_ASC_NODE":354.027,"ARG_OF_PERICENTER":275.1513,"MEAN_ANOMALY":84.927,"EPHEMERIS_TYPE":0,"CLASSIFICATION_TYPE":"U","NORAD_CAT_ID":63080,"ELEMENT_SET_NO":999,"REV_AT_EPOCH":5863,"BSTAR":0.00086720793,"MEAN_MOTION_DOT":0.0001027,"MEAN_MOTION_DDOT":0},{"OBJECT_NAME":"CZ-4B R\/B","OBJECT_ID":"2014-079B","EPOCH":"2026-03-09T22:52:27.338880","MEAN_MOTION":15.04904185,"ECCENTRICITY":0.01415279,"INCLINATION":98.4648,"RA_OF_ASC_NODE":154.7469,"ARG_OF_PERICENTER":308.4035,"MEAN_ANOMALY":50.4548,"EPHEMERIS_TYPE":0,"CLASSIFICATION_TYPE":"U","NORAD_CAT_ID":40337,"ELEMENT_SET_NO":999,"REV_AT_EPOCH":61279,"BSTAR":0.00019142184,"MEAN_MOTION_DOT":3.298e-5,"MEAN_MOTION_DDOT":0}]
